#dP2018  7 24  0  0  0.00000000      96 __u+U IGS08 FIT  IAC
## 2011 172800.00000000   900.00000000 58323 0.0000000000000
+   85   C01C02C03C04C05C06C07C08C09C10C11C12C13C14E01E02E03
+        E04E05E07E08E09E11E12E14E18E19E24E26E30G01G02G03G05
+        G06G07G08G09G10G11G12G13G14G15G16G17G18G19G20G21G22
+        G23G24G25G26G27G28G29G30G31G32J01R01R02R03R04R05R07
+        R08R09R10R11R13R14R15R16R17R18R19R20R21R22R23R24R26
++        13 12 12 12  0  8  8  8  8  8  7  7  8  7  7  7  7
++         7  7  7  7  7  7  7  7  8  7  7  7  7  3  3  3  3
++         3  3  3  3  3  3  3  3  3  3  3  3  3  3  3  3  3
++         3  3  6  3  3  3  3  3  3  3  9  5  5  5  5  8  5
++         5  5  5  5  5  5  5  5  5  5  5  5  5  5  5  5  8
%c M  cc GPS ccc cccc cccc cccc cccc ccccc ccccc ccccc ccccc
%c cc cc ccc ccc cccc cccc cccc cccc ccccc ccccc ccccc ccccc
%f  1.2500000  1.025000000  0.00000000000  0.000000000000000
%f  0.0000000  0.000000000  0.00000000000  0.000000000000000
%i    0    0    0    0      0      0      0      0         0
%i    0    0    0    0      0      0      0      0         0
/* INFORMATION & ANALYSIS CENTER (IAC)            FINAL DATA
/* S/V CLOCKS ARE ALIGNED TO GPS & GLONASS TIME RESPECTIVELY
/* USING THE BROADCAST EPHEMERIS                            
/* PCV:IGS14_2000 OL/AL:FES2004  NONE     YN ORB:CoN CLK:CoN
*  2018 07 24 21 15  0.00000000
PC01 -32261.587759  27156.197985    636.520977    381.963855
PC02   4407.067477  41917.281443  -1432.647543    -54.179720
PC03 -14785.330729  39463.423623   -167.901419   -178.607764
PC04 -39631.192686  14414.814065     68.320489   -257.018705
PC05  21794.399865  36070.497801  -1083.498937 999999.999999
PC06 -16239.431572  38419.984887  -4593.023081    118.298522
PC07  -9260.964217  25740.223872  32306.705539     53.371103
PC08 -23275.982953  22327.553492 -27233.641240    453.235292
PC09  -8400.943601  40206.841534   8925.399347     79.040935
PC10   5623.119974  33213.651947  25712.399394   -412.115972
PC11  14221.756226 -21477.001378  10687.699009   -605.573705
PC12  23177.867239 -13235.743446  -7930.973070    529.465709
PC13  -9822.632434  24858.452722 -32667.640085   -193.488717
PC14   5168.939932 -23679.640559  13935.675238    290.845517
PE01  18165.005506  21938.203899   8084.424636   -397.849834
PE02 -18180.937467 -21924.081741  -8053.756501     20.790985
PE03  -7361.179970 -23816.730838 -15941.908661    -58.087911
PE04  16542.851794   4857.762127  24071.865431    -82.051969
PE05   6177.182821 -28906.195116   1566.975527    223.147011
PE07 -16041.080293  17080.540474 -18076.854439     -7.895384
PE08 -16438.815769  -4661.932490 -24158.606657   6537.455757
PE09  15800.501020 -17182.687614  18206.192069   6725.607466
PE11  25885.838962 -13444.022515   5082.393719   2844.609420
PE12  26200.345691    -18.017928 -13792.874598   4674.779877
PE14    878.967493  24184.006278 -18472.494521   6546.193769
PE18  10881.352426 -23343.876373   6954.192221   6034.648808
PE19   6173.866384  24986.263455  14627.058814    -13.822543
PE24  17119.048184  -5746.918597 -23461.405826   6583.561646
PE26 -10642.158628  18678.194162 -20353.486551   5672.234111
PE30 -24967.127760 -11520.801565  10947.417669   5651.627490
PG01  14418.981229  13321.455135 -18191.208624    -69.138375
PG02   8785.397230 -14798.804324  20740.032491     48.477534
PG03  13552.306453  22723.759738   2688.170796    110.842181
PG05    966.626952 -21520.250274  15290.153895     -4.132521
PG06  22814.066566  -6850.419481  11804.321502    383.796655
PG07  25406.105534   6193.834392   6125.862952    153.396029
PG08  -2220.959067  22031.741715 -14508.293647   -109.293395
PG09  14749.609666   5234.956048  21430.085673    513.014161
PG10 -15779.575834   1714.617322 -21275.491045    188.431300
PG11   9105.848612  14186.056240 -21071.708241   -728.473573
PG12  -9112.841247 -24975.855012  -2167.934050    318.776783
PG13  10908.299584 -22538.343035  -8953.035302    -91.993259
PG14 -18318.137795  18455.100576  -4617.150562    -97.649739
PG15  -2640.516726 -20810.171755 -16284.659123   -350.064257
PG16  -3380.162382  20365.528847  16307.608925     16.451321
PG17  19479.424845 -11711.422790 -13248.984462    -74.735881
PG18   4804.607942  15457.756216 -21551.011560     37.575445
PG19  19186.209395 -17643.585454  -5813.541484   -417.645197
PG20 -19570.529740  -7356.420458 -16550.739691    512.975111
PG21 -26244.749588  -2759.892004   3606.753863   -362.762449
PG22   9594.937225  24177.841616  -5191.305137   -468.079683
PG23   7688.342587  15476.975325  20361.735680   -213.970788
PG24 -10587.573101 -14531.281656 -19754.798677    -53.015436
PG25 -16945.076255 -17404.903865  10827.024421   -621.146597
PG26 -10144.451559  12607.040250  21029.741322    -73.354173
PG27 -11494.768312  23362.462884  -4569.615211    358.901965
PG28  15714.775803   2447.767843 -20644.326543    733.559014
PG29 -12699.417664  -7505.033576  22059.622198    408.761123
PG30  26275.715926   -424.666138  -4435.484204     46.459156
PG31 -21935.329025   7456.008981  13394.980432    105.457162
PG32 -19219.710228  12323.005318 -13453.662286   -467.980778
PJ01 -17939.750007  27203.437258 -22146.929286   -167.642609
PR01  11000.477642  -2683.028174  22862.793038     29.540891
PR02   5853.620453 -21357.692433  12745.265561    321.300664
PR03  -2412.543999 -25007.531035  -4492.239774    138.578673
PR04  -9410.020530 -13619.433246 -19391.651932    269.747788
PR05 -10747.709771   5461.810368 -22484.111293    -45.348245
PR07   2666.819261  24845.687750   5074.668151    -43.191024
PR08   9256.257674  14214.431922  19105.678246     22.126105
PR09  -6085.727973   9297.536286  22973.937586     19.767655
PR10  10720.678146  15421.013087  17289.383730     28.495344
PR11  21897.156068  13104.838315    966.753110    -35.599891
PR13   6074.725752  -9004.773977 -23095.443290    -12.864114
PR14 -10492.694184 -15473.065871 -17329.740456     29.366944
PR15 -20375.969863 -14531.223721  -5165.286707    -13.632908
PR16 -20571.547125  -3258.800973  14780.151851     97.691245
PR17   2960.025470 -13256.948106  21584.058711    150.532051
PR18 -13103.184338  -3746.412188  21555.021850    204.186889
PR19 -22428.666194   7584.954689   9487.784421    -56.970420
PR20 -18278.494694  15030.123830  -9460.441297   -346.303496
PR21  -2663.336643  13075.705489 -21750.726379      5.548122
PR22  14895.102908   2193.175625 -20631.966060    -56.818624
PR23  22693.373477 -10224.202802  -5597.798750    167.764021
PR24  17387.694531 -15508.218996  10368.818290   -169.278724
PR26 -18629.049499  15260.675771  -8440.514543     36.432135
EOF
